COMMENT,ORIGINATOR,NORAD_CAT_ID,OBJECT_NAME,OBJECT_TYPE,CLASSIFICATION_TYPE,INTLDES,EPOCH,EPOCH_MICROSECONDS,MEAN_MOTION,ECCENTRICITY,INCLINATION,RA_OF_ASC_NODE,ARG_OF_PERICENTER,MEAN_ANOMALY,EPHEMERIS_TYPE,ELEMENT_SET_NO,REV_AT_EPOCH,BSTAR,MEAN_MOTION_DOT,MEAN_MOTION_DDOT,FILE,TLE_LINE0,TLE_LINE1,TLE_LINE2,OBJECT_ID,OBJECT_NUMBER,SEMIMAJOR_AXIS,PERIOD,APOGEE,PERIGEE,DECAYED
"GENERATED VIA SPACETRACK.ORG API","18 SPCS","55094","SPACEBEE-165","PAYLOAD","U","23001CP","2023-05-11 02:45:23","868576","15.18786399","0.0015928","97.4787","191.5709","130.2336","230.0294","0","999","1947","0.001031","0.00021489","0","3905210","0 SPACEBEE-165","1 55094U 23001CP  23131.11485959  .00021489  00000-0  10310-2 0  9992","2 55094  97.4787 191.5709 0015928 130.2336 230.0294 15.18786399 19470","2023-001CP","55094","6887.644","94.813","520.480","498.539","0"
"GENERATED VIA SPACETRACK.ORG API","18 SPCS","55094","SPACEBEE-165","PAYLOAD","U","23001CP","2023-05-11 16:59:14","871264","15.18812881","0.0015982","97.479","192.1576","128.4512","231.8159","0","999","1956","0.000996","0.00020771","0","3905576","0 SPACEBEE-165","1 55094U 23001CP  23131.70781101  .00020771  00000-0  99600-3 0  9998","2 55094  97.4790 192.1576 0015982 128.4512 231.8159 15.18812881 19563","2023-001CP","55094","6887.564","94.811","520.437","498.421","0"
"GENERATED VIA SPACETRACK.ORG API","18 SPCS","55094","SPACEBEE-165","PAYLOAD","U","23001CP","2023-05-12 04:03:20","615904","15.18832106","0.001599","97.4789","192.6142","126.6827","233.5879","0","999","1963","0.0009606","0.0002004","0","3905921","0 SPACEBEE-165","1 55094U 23001CP  23132.16898861  .00020040  00000-0  96060-3 0  9997","2 55094  97.4789 192.6142 0015990 126.6827 233.5879 15.18832106 19631","2023-001CP","55094","6887.506","94.810","520.384","498.358","0"
"GENERATED VIA SPACETRACK.ORG API","18 SPCS","55094","SPACEBEE-165","PAYLOAD","U","23001CP","2023-05-12 15:07:25","870656","15.18853031","0.001602","97.4791","193.0704","125.542","234.731","0","999","1970","0.0010866","0.00022699","0","3906381","0 SPACEBEE-165","1 55094U 23001CP  23132.63016054  .00022699  00000-0  10866-2 0  9996","2 55094  97.4791 193.0704 0016020 125.5420 234.7310 15.18853031 19706","2023-001CP","55094","6887.443","94.808","520.342","498.274","0"
"GENERATED VIA SPACETRACK.ORG API","18 SPCS","55094","SPACEBEE-165","PAYLOAD","U","23001CP","2023-05-12 21:26:54","333888","15.18865792","0.0016015","97.4791","193.3316","124.5952","235.6795","0","999","1974","0.0012434","0.00026006","0","3906372","0 SPACEBEE-165","1 55094U 23001CP  23132.89368442  .00026006  00000-0  12434-2 0  9994","2 55094  97.4791 193.3316 0016015 124.5952 235.6795 15.18865792 19749","2023-001CP","55094","6887.404","94.808","520.299","498.239","0"
"GENERATED VIA SPACETRACK.ORG API","18 SPCS","55094","SPACEBEE-165","PAYLOAD","U","23001CP","2023-05-13 03:46:22","646784","15.18874536","0.0016046","97.4791","193.5926","123.6897","236.587","0","999","1978","0.0010179","0.00021269","0","3906915","0 SPACEBEE-165","1 55094U 23001CP  23133.15720656  .00021269  00000-0  10179-2 0  9993","2 55094  97.4791 193.5926 0016046 123.6897 236.5870 15.18874536 19784","2023-001CP","55094","6887.378","94.807","520.294","498.191","0"
"GENERATED VIA SPACETRACK.ORG API","18 SPCS","55094","SPACEBEE-165","PAYLOAD","U","23001CP","2023-05-13 18:00:10","743840","15.18897044","0.0016047","97.4791","194.1791","121.9008","238.379","0","999","1987","0.00086537","0.00018076","0","3907148","0 SPACEBEE-165","1 55094U 23001CP  23133.75012435  .00018076  00000-0  86537-3 0  9992","2 55094  97.4791 194.1791 0016047 121.9008 238.3790 15.18897044 19877","2023-001CP","55094","6887.310","94.806","520.227","498.123","0"
"GENERATED VIA SPACETRACK.ORG API","18 SPCS","55094","SPACEBEE-165","PAYLOAD","U","23001CP","2023-05-14 03:29:22","375104","15.18913434","0.0015987","97.4789","194.5705","120.6524","239.6289","0","999","1993","0.00096197","0.00020116","0","3907509","0 SPACEBEE-165","1 55094U 23001CP  23134.14539786  .00020116  00000-0  96197-3 0  9990","2 55094  97.4789 194.5705 0015987 120.6524 239.6289 15.18913434 19930","2023-001CP","55094","6887.260","94.805","520.136","498.115","0"
"GENERATED VIA SPACETRACK.ORG API","18 SPCS","55094","SPACEBEE-165","PAYLOAD","U","23001CP","2023-05-14 03:29:22","375104","15.18913434","0.0015987","97.4789","194.5705","120.6524","239.6289","0","999","1993","0.00096197","0.00020116","0","3907744","0 SPACEBEE-165","1 55094U 23001CP  23134.14539786  .00020116  00000-0  96197-3 0  9990","2 55094  97.4789 194.5705 0015987 120.6524 239.6289 15.18913434 19930","2023-001CP","55094","6887.260","94.805","520.136","498.115","0"
"GENERATED VIA SPACETRACK.ORG API","18 SPCS","55094","SPACEBEE-165","PAYLOAD","U","23001CP","2023-05-14 17:43:09","228864","15.18931635","0.0015995","97.4789","195.1574","118.8924","241.3917","0","999","2002","0.000781","0.00016319","0","3908005","0 SPACEBEE-165","1 55094U 23001CP  23134.73830126  .00016319  00000-0  78100-3 0  9991","2 55094  97.4789 195.1574 0015995 118.8924 241.3917 15.18931635 20026","2023-001CP","55094","6887.205","94.803","520.086","498.054","0"
"GENERATED VIA SPACETRACK.ORG API","18 SPCS","55094","SPACEBEE-165","PAYLOAD","U","23001CP","2023-05-15 09:31:47","74368","15.18955786","0.0015925","97.4789","195.8093","116.8837","243.4027","0","999","2012","0.00079088","0.00016538","0","3908639","0 SPACEBEE-165","1 55094U 23001CP  23135.39707262  .00016538  00000-0  79088-3 0  9997","2 55094  97.4789 195.8093 0015925 116.8837 243.4027 15.18955786 20122","2023-001CP","55094","6887.132","94.802","519.965","498.029","0"
"GENERATED VIA SPACETRACK.ORG API","18 SPCS","55094","SPACEBEE-165","PAYLOAD","U","23001CP","2023-05-15 09:31:47","74368","15.18955786","0.0015925","97.4789","195.8093","116.8837","243.4027","0","999","2012","0.00079088","0.00016538","0","3908681","0 SPACEBEE-165","1 55094U 23001CP  23135.39707262  .00016538  00000-0  79088-3 0  9997","2 55094  97.4789 195.8093 0015925 116.8837 243.4027 15.18955786 20122","2023-001CP","55094","6887.132","94.802","519.965","498.029","0"
"GENERATED VIA SPACETRACK.ORG API","18 SPCS","55094","SPACEBEE-165","PAYLOAD","U","23001CP","2023-05-15 15:51:13","989312","15.18964828","0.0015908","97.4789","196.0701","116.1173","244.17","0","999","2016","0.00077313","0.00016168","0","3908892","0 SPACEBEE-165","1 55094U 23001CP  23135.66057858  .00016168  00000-0  77313-3 0  9994","2 55094  97.4789 196.0701 0015908 116.1173 244.1700 15.18964828 20165","2023-001CP","55094","6887.105","94.801","519.926","498.014","0"
"GENERATED VIA SPACETRACK.ORG API","18 SPCS","55094","SPACEBEE-165","PAYLOAD","U","23001CP","2023-05-16 02:55:15","777696","15.18981292","0.0015886","97.4789","196.5265","114.6946","245.5944","0","999","2023","0.00080936","0.00016939","0","3909472","0 SPACEBEE-165","1 55094U 23001CP  23136.12171039  .00016939  00000-0  80936-3 0  9995","2 55094  97.4789 196.5265 0015886 114.6946 245.5944 15.18981292 20238","2023-001CP","55094","6887.055","94.800","519.861","497.979","0"
"GENERATED VIA SPACETRACK.ORG API","18 SPCS","55094","SPACEBEE-165","PAYLOAD","U","23001CP","2023-05-17 02:38:09","687840","15.19011572","0.0015863","97.4791","197.5047","111.3538","248.9391","0","999","2038","0.00070567","0.00014769","0","3909983","0 SPACEBEE-165","1 55094U 23001CP  23137.10983435  .00014769  00000-0  70567-3 0  9993","2 55094  97.4791 197.5047 0015863 111.3538 248.9391 15.19011572 20381","2023-001CP","55094","6886.964","94.798","519.753","497.904","0"
"GENERATED VIA SPACETRACK.ORG API","18 SPCS","55094","SPACEBEE-165","PAYLOAD","U","23001CP","2023-05-17 21:36:27","578016","15.19034214","0.0015966","97.4791","198.2873","109.1067","251.1898","0","999","2050","0.00063806","0.00013354","0","3910633","0 SPACEBEE-165","1 55094U 23001CP  23137.90031919  .00013354  00000-0  63806-3 0  9999","2 55094  97.4791 198.2873 0015966 109.1067 251.1898 15.19034214 20502","2023-001CP","55094","6886.895","94.797","519.756","497.765","0"
"GENERATED VIA SPACETRACK.ORG API","18 SPCS","55094","SPACEBEE-165","PAYLOAD","U","23001CP","2023-05-18 03:55:53","300640","15.19041652","0.0015924","97.4791","198.5481","108.3648","251.932","0","999","2054","0.00060796","0.00012722","0","3911196","0 SPACEBEE-165","1 55094U 23001CP  23138.16381135  .00012722  00000-0  60796-3 0  9999","2 55094  97.4791 198.5481 0015924 108.3648 251.9320 15.19041652 20546","2023-001CP","55094","6886.873","94.797","519.704","497.771","0"
"GENERATED VIA SPACETRACK.ORG API","18 SPCS","55094","SPACEBEE-165","PAYLOAD","U","23001CP","2023-05-18 03:55:53","300640","15.19041652","0.0015924","97.4791","198.5481","108.3648","251.932","0","999","2054","0.00060796","0.00012722","0","3911221","0 SPACEBEE-165","1 55094U 23001CP  23138.16381135  .00012722  00000-0  60796-3 0  9999","2 55094  97.4791 198.5481 0015924 108.3648 251.9320 15.19041652 20546","2023-001CP","55094","6886.873","94.797","519.704","497.771","0"
"GENERATED VIA SPACETRACK.ORG API","18 SPCS","55094","SPACEBEE-165","PAYLOAD","U","23001CP","2023-05-18 14:59:53","113920","15.19053816","0.0015927","97.4787","199.0044","106.9403","253.3578","0","999","2061","0.0006014","0.00012588","0","3911388","0 SPACEBEE-165","1 55094U 23001CP  23138.62492030  .00012588  00000-0  60140-3 0  9990","2 55094  97.4787 199.0044 0015927 106.9403 253.3578 15.19053816 20612","2023-001CP","55094","6886.836","94.796","519.670","497.732","0"
"GENERATED VIA SPACETRACK.ORG API","18 SPCS","55094","SPACEBEE-165","PAYLOAD","U","23001CP","2023-05-19 09:58:09","162912","15.19074339","0.0015898","97.4785","199.7871","104.5818","255.7181","0","999","2073","0.00059327","0.00012424","0","3911943","0 SPACEBEE-165","1 55094U 23001CP  23139.41538383  .00012424  00000-0  59327-3 0  9994","2 55094  97.4785 199.7871 0015898 104.5818 255.7181 15.19074339 20738","2023-001CP","55094","6886.774","94.795","519.587","497.690","0"
